[{"OBJECT_NAME":"STARLINK-5467","OBJECT_ID":"2023-021AJ","EPOCH":"2026-03-09T15:44:49.737408","MEAN_MOTION":14.98299745,"ECCENTRICITY":0.00034055,"INCLINATION":70.0014,"RA_OF_ASC_NODE":164.3842,"ARG_OF_PERICENTER":269.2197,"MEAN_ANOMALY":90.8572,"EPHEMERIS_TYPE":0,"CLASSIFICATION_TYPE":"U","NORAD_CAT_ID":55660,"ELEMENT_SET_NO":999,"REV_AT_EPOCH":16928,"BSTAR":0.00024740261,"MEAN_MOTION_DOT":2.858e-5,"MEAN_MOTION_DDOT":0},{"OBJECT_NAME":"CZ-6A DEB","OBJECT_ID":"2024-140FD","EPOCH":"2026-03-09T14:27:44.906112","MEAN_MOTION":14.99694865,"ECCENTRICITY":0.0039811,"INCLINATION":89.0027,"RA_OF_ASC_NODE":280.8171,"ARG_OF_PERICENTER":188.2594,"MEAN_ANOMALY":171.7991,"EPHEMERIS_TYPE":0,"CLASSIFICATION_TYPE":"U","NORAD_CAT_ID":60778,"ELEMENT_SET_NO":999,"REV_AT_EPOCH":8450,"BSTAR":0.0048584,"MEAN_MOTION_DOT":0.00061368,"MEAN_MOTION_DDOT":0}]
